XRISM                   
1 57800U 23137A   26150.30512996  .00007113  00000+0  39504-3 0  9990
2 57800  31.0013 115.4181 0007655 145.2078 214.9063 15.12292809150157
ACS3                    
1 59588U 24077B   26150.40047394  .00002123  00000+0  16445-2 0  9999
2 59588  97.1702  73.1641 0030951  57.7525 302.6634 13.93183359105560
SZ-21 MODULE            
1 66515U 25246C   26150.78559946  .00046051  00000+0  30288-3 0  9998
2 66515  41.4749  55.5825 0006779 248.7955 111.2165 15.74824238 30995
