[
    {
        "OBJECT_NAME": "XRISM",
        "OBJECT_ID": "2023-137A",
        "EPOCH": "2026-05-30T07:19:23.228544",
        "MEAN_MOTION": 15.12292809,
        "ECCENTRICITY": 0.00076556,
        "INCLINATION": 31.0013,
        "RA_OF_ASC_NODE": 115.4181,
        "ARG_OF_PERICENTER": 145.2078,
        "MEAN_ANOMALY": 214.9063,
        "EPHEMERIS_TYPE": 0,
        "CLASSIFICATION_TYPE": "U",
        "NORAD_CAT_ID": 57800,
        "ELEMENT_SET_NO": 999,
        "REV_AT_EPOCH": 15015,
        "BSTAR": 0.00039503724,
        "MEAN_MOTION_DOT": 7.113e-05,
        "MEAN_MOTION_DDOT": 0
    },
    {
        "OBJECT_NAME": "ACS3",
        "OBJECT_ID": "2024-077B",
        "EPOCH": "2026-05-30T09:36:40.948416",
        "MEAN_MOTION": 13.93183359,
        "ECCENTRICITY": 0.0030951,
        "INCLINATION": 97.1702,
        "RA_OF_ASC_NODE": 73.1641,
        "ARG_OF_PERICENTER": 57.7525,
        "MEAN_ANOMALY": 302.6634,
        "EPHEMERIS_TYPE": 0,
        "CLASSIFICATION_TYPE": "U",
        "NORAD_CAT_ID": 59588,
        "ELEMENT_SET_NO": 999,
        "REV_AT_EPOCH": 10556,
        "BSTAR": 0.0016445,
        "MEAN_MOTION_DOT": 2.123e-05,
        "MEAN_MOTION_DDOT": 0
    },
    {
        "OBJECT_NAME": "SZ-21 MODULE",
        "OBJECT_ID": "2025-246C",
        "EPOCH": "2026-05-30T18:51:15.793344",
        "MEAN_MOTION": 15.74824238,
        "ECCENTRICITY": 0.0006779,
        "INCLINATION": 41.4749,
        "RA_OF_ASC_NODE": 55.5825,
        "ARG_OF_PERICENTER": 248.7955,
        "MEAN_ANOMALY": 111.2165,
        "EPHEMERIS_TYPE": 0,
        "CLASSIFICATION_TYPE": "U",
        "NORAD_CAT_ID": 66515,
        "ELEMENT_SET_NO": 999,
        "REV_AT_EPOCH": 3099,
        "BSTAR": 0.00030288,
        "MEAN_MOTION_DOT": 0.00046051,
        "MEAN_MOTION_DDOT": 0
    }
]